CCSDS_OMM_VERS = 2.0
CREATION_DATE  = 
ORIGINATOR     = 

OBJECT_NAME    = ATLAS CENTAUR R/B
OBJECT_ID      = 1972-065B
CENTER_NAME    = EARTH
REF_FRAME      = TEME
TIME_SYSTEM    = UTC
MEAN_ELEMENT_THEORY = SGP/SGP4

EPOCH          = 2025-12-02T19:01:51.450240
MEAN_MOTION    = 14.77363292
ECCENTRICITY   = .0034595
INCLINATION    = 34.9998
RA_OF_ASC_NODE = 153.4627
ARG_OF_PERICENTER = 275.2020
MEAN_ANOMALY   = 84.4733

EPHEMERIS_TYPE = 0
CLASSIFICATION_TYPE = U
NORAD_CAT_ID   = 6155
ELEMENT_SET_NO = 999
REV_AT_EPOCH   = 82692
BSTAR          = .21417E-3
MEAN_MOTION_DOT = .154E-4
MEAN_MOTION_DDOT = 0

CCSDS_OMM_VERS = 2.0
CREATION_DATE  = 
ORIGINATOR     = 

OBJECT_NAME    = SL-8 R/B
OBJECT_ID      = 1975-112B
CENTER_NAME    = EARTH
REF_FRAME      = TEME
TIME_SYSTEM    = UTC
MEAN_ELEMENT_THEORY = SGP/SGP4

EPOCH          = 2025-12-03T00:32:05.525088
MEAN_MOTION    = 14.38135058
ECCENTRICITY   = .0016431
INCLINATION    = 74.0596
RA_OF_ASC_NODE = 196.7317
ARG_OF_PERICENTER = 309.1624
MEAN_ANOMALY   = 50.8069

EPHEMERIS_TYPE = 0
CLASSIFICATION_TYPE = U
NORAD_CAT_ID   = 8459
ELEMENT_SET_NO = 999
REV_AT_EPOCH   = 61797
BSTAR          = .13412E-3
MEAN_MOTION_DOT = .381E-5
MEAN_MOTION_DDOT = 0

CCSDS_OMM_VERS = 2.0
CREATION_DATE  = 
ORIGINATOR     = 

OBJECT_NAME    = SL-3 R/B
OBJECT_ID      = 1977-057B
CENTER_NAME    = EARTH
REF_FRAME      = TEME
TIME_SYSTEM    = UTC
MEAN_ELEMENT_THEORY = SGP/SGP4

EPOCH          = 2025-12-03T03:45:39.540960
MEAN_MOTION    = 15.42593347
ECCENTRICITY   = .0006416
INCLINATION    = 97.5676
RA_OF_ASC_NODE = 140.1138
ARG_OF_PERICENTER = 273.2826
MEAN_ANOMALY   = 86.7687

EPHEMERIS_TYPE = 0
CLASSIFICATION_TYPE = U
NORAD_CAT_ID   = 10114
ELEMENT_SET_NO = 999
REV_AT_EPOCH   = 65343
BSTAR          = .37445E-3
MEAN_MOTION_DOT = .16213E-3
MEAN_MOTION_DDOT = 0

CCSDS_OMM_VERS = 2.0
CREATION_DATE  = 
ORIGINATOR     = 

OBJECT_NAME    = SEASAT 1
OBJECT_ID      = 1978-064A
CENTER_NAME    = EARTH
REF_FRAME      = TEME
TIME_SYSTEM    = UTC
MEAN_ELEMENT_THEORY = SGP/SGP4

EPOCH          = 2025-12-03T03:15:34.581888
MEAN_MOTION    = 14.46043359
ECCENTRICITY   = .0001886
INCLINATION    = 108.0098
RA_OF_ASC_NODE = 282.8862
ARG_OF_PERICENTER = 250.4972
MEAN_ANOMALY   = 109.5970

EPHEMERIS_TYPE = 0
CLASSIFICATION_TYPE = U
NORAD_CAT_ID   = 10967
ELEMENT_SET_NO = 999
REV_AT_EPOCH   = 49255
BSTAR          = .2192E-3
MEAN_MOTION_DOT = .645E-5
MEAN_MOTION_DDOT = 0

CCSDS_OMM_VERS = 2.0
CREATION_DATE  = 
ORIGINATOR     = 

OBJECT_NAME    = SL-14 R/B
OBJECT_ID      = 1979-011B
CENTER_NAME    = EARTH
REF_FRAME      = TEME
TIME_SYSTEM    = UTC
MEAN_ELEMENT_THEORY = SGP/SGP4

EPOCH          = 2025-12-03T01:29:12.573312
MEAN_MOTION    = 14.91751068
ECCENTRICITY   = .0016769
INCLINATION    = 82.5242
RA_OF_ASC_NODE = 188.2223
ARG_OF_PERICENTER = 25.1993
MEAN_ANOMALY   = 335.0041

EPHEMERIS_TYPE = 0
CLASSIFICATION_TYPE = U
NORAD_CAT_ID   = 11267
ELEMENT_SET_NO = 999
REV_AT_EPOCH   = 51437
BSTAR          = .7489E-4
MEAN_MOTION_DOT = .781E-5
MEAN_MOTION_DDOT = 0

CCSDS_OMM_VERS = 2.0
CREATION_DATE  = 
ORIGINATOR     = 

OBJECT_NAME    = SL-8 R/B
OBJECT_ID      = 1979-089B
CENTER_NAME    = EARTH
REF_FRAME      = TEME
TIME_SYSTEM    = UTC
MEAN_ELEMENT_THEORY = SGP/SGP4

EPOCH          = 2025-12-03T03:00:41.965344
MEAN_MOTION    = 14.42272353
ECCENTRICITY   = .0014479
INCLINATION    = 74.0690
RA_OF_ASC_NODE = 269.7726
ARG_OF_PERICENTER = 108.2932
MEAN_ANOMALY   = 251.9801

EPHEMERIS_TYPE = 0
CLASSIFICATION_TYPE = U
NORAD_CAT_ID   = 11574
ELEMENT_SET_NO = 999
REV_AT_EPOCH   = 42218
BSTAR          = .13619E-3
MEAN_MOTION_DOT = .424E-5
MEAN_MOTION_DDOT = 0

CCSDS_OMM_VERS = 2.0
CREATION_DATE  = 
ORIGINATOR     = 

OBJECT_NAME    = SL-14 R/B
OBJECT_ID      = 1980-005B
CENTER_NAME    = EARTH
REF_FRAME      = TEME
TIME_SYSTEM    = UTC
MEAN_ELEMENT_THEORY = SGP/SGP4

EPOCH          = 2025-12-03T03:29:57.889824
MEAN_MOTION    = 14.90772887
ECCENTRICITY   = .0017082
INCLINATION    = 82.5156
RA_OF_ASC_NODE = 38.7975
ARG_OF_PERICENTER = 122.7817
MEAN_ANOMALY   = 237.5050

EPHEMERIS_TYPE = 0
CLASSIFICATION_TYPE = U
NORAD_CAT_ID   = 11672
ELEMENT_SET_NO = 999
REV_AT_EPOCH   = 46210
BSTAR          = .85299E-4
MEAN_MOTION_DOT = .866E-5
MEAN_MOTION_DDOT = 0

CCSDS_OMM_VERS = 2.0
CREATION_DATE  = 
ORIGINATOR     = 

OBJECT_NAME    = SL-8 R/B
OBJECT_ID      = 1981-003B
CENTER_NAME    = EARTH
REF_FRAME      = TEME
TIME_SYSTEM    = UTC
MEAN_ELEMENT_THEORY = SGP/SGP4

EPOCH          = 2025-12-03T02:36:05.861088
MEAN_MOTION    = 15.06587019
ECCENTRICITY   = .0280999
INCLINATION    = 82.9298
RA_OF_ASC_NODE = 19.0674
ARG_OF_PERICENTER = 153.4596
MEAN_ANOMALY   = 208.1345

EPHEMERIS_TYPE = 0
CLASSIFICATION_TYPE = U
NORAD_CAT_ID   = 12139
ELEMENT_SET_NO = 999
REV_AT_EPOCH   = 30011
BSTAR          = .65656E-3
MEAN_MOTION_DOT = .24577E-3
MEAN_MOTION_DDOT = 0

CCSDS_OMM_VERS = 2.0
CREATION_DATE  = 
ORIGINATOR     = 

OBJECT_NAME    = SL-3 R/B
OBJECT_ID      = 1981-046B
CENTER_NAME    = EARTH
REF_FRAME      = TEME
TIME_SYSTEM    = UTC
MEAN_ELEMENT_THEORY = SGP/SGP4

EPOCH          = 2025-12-03T03:21:02.850048
MEAN_MOTION    = 15.39298594
ECCENTRICITY   = .0019603
INCLINATION    = 81.2345
RA_OF_ASC_NODE = 45.4192
ARG_OF_PERICENTER = 358.1090
MEAN_ANOMALY   = 2.0073

EPHEMERIS_TYPE = 0
CLASSIFICATION_TYPE = U
NORAD_CAT_ID   = 12465
ELEMENT_SET_NO = 999
REV_AT_EPOCH   = 42356
BSTAR          = .3672E-3
MEAN_MOTION_DOT = .14448E-3
MEAN_MOTION_DDOT = 0

CCSDS_OMM_VERS = 2.0
CREATION_DATE  = 
ORIGINATOR     = 

OBJECT_NAME    = SL-3 R/B
OBJECT_ID      = 1981-103B
CENTER_NAME    = EARTH
REF_FRAME      = TEME
TIME_SYSTEM    = UTC
MEAN_ELEMENT_THEORY = SGP/SGP4

EPOCH          = 2025-12-03T02:46:26.162112
MEAN_MOTION    = 15.20046990
ECCENTRICITY   = .0011241
INCLINATION    = 81.1583
RA_OF_ASC_NODE = 326.6250
ARG_OF_PERICENTER = 250.3496
MEAN_ANOMALY   = 109.6522

EPHEMERIS_TYPE = 0
CLASSIFICATION_TYPE = U
NORAD_CAT_ID   = 12904
ELEMENT_SET_NO = 999
REV_AT_EPOCH   = 95855
BSTAR          = .42291E-3
MEAN_MOTION_DOT = .9161E-4
MEAN_MOTION_DDOT = 0

CCSDS_OMM_VERS = 2.0
CREATION_DATE  = 
ORIGINATOR     = 

OBJECT_NAME    = SL-3 R/B
OBJECT_ID      = 1982-013B
CENTER_NAME    = EARTH
REF_FRAME      = TEME
TIME_SYSTEM    = UTC
MEAN_ELEMENT_THEORY = SGP/SGP4

EPOCH          = 2025-12-03T04:05:07.012320
MEAN_MOTION    = 15.20943748
ECCENTRICITY   = .0023647
INCLINATION    = 81.1748
RA_OF_ASC_NODE = 273.8086
ARG_OF_PERICENTER = 141.4938
MEAN_ANOMALY   = 218.7986

EPHEMERIS_TYPE = 0
CLASSIFICATION_TYPE = U
NORAD_CAT_ID   = 13068
ELEMENT_SET_NO = 999
REV_AT_EPOCH   = 38967
BSTAR          = .30975E-3
MEAN_MOTION_DOT = .6934E-4
MEAN_MOTION_DDOT = 0

CCSDS_OMM_VERS = 2.0
CREATION_DATE  = 
ORIGINATOR     = 

OBJECT_NAME    = SL-3 R/B
OBJECT_ID      = 1982-039B
CENTER_NAME    = EARTH
REF_FRAME      = TEME
TIME_SYSTEM    = UTC
MEAN_ELEMENT_THEORY = SGP/SGP4

EPOCH          = 2025-12-03T02:15:01.879200
MEAN_MOTION    = 15.09430400
ECCENTRICITY   = .0030368
INCLINATION    = 81.1729
RA_OF_ASC_NODE = 327.1931
ARG_OF_PERICENTER = 284.9654
MEAN_ANOMALY   = 74.8209

EPHEMERIS_TYPE = 0
CLASSIFICATION_TYPE = U
NORAD_CAT_ID   = 13154
ELEMENT_SET_NO = 999
REV_AT_EPOCH   = 36706
BSTAR          = .25878E-3
MEAN_MOTION_DOT = .4205E-4
MEAN_MOTION_DDOT = 0

