ATLAS CENTAUR R/B       
1 06155U 72065B   25336.79295660  .00001540  00000+0  21417-3 0  9997
2 06155  34.9998 153.4627 0034595 275.2020  84.4733 14.77363292826923
SL-8 R/B                
1 08459U 75112B   25337.02228617  .00000381  00000+0  13412-3 0  9995
2 08459  74.0596 196.7317 0016431 309.1624  50.8069 14.38135058617979
SL-3 R/B                
1 10114U 77057B   25337.15670765  .00016213  00000+0  37445-3 0  9998
2 10114  97.5676 140.1138 0006416 273.2826  86.7687 15.42593347653430
SEASAT 1                
1 10967U 78064A   25337.13581692  .00000645  00000+0  21920-3 0  9994
2 10967 108.0098 282.8862 0001886 250.4972 109.5970 14.46043359492554
SL-14 R/B               
1 11267U 79011B   25337.06195108  .00000781  00000+0  74890-4 0  9992
2 11267  82.5242 188.2223 0016769  25.1993 335.0041 14.91751068514374
SL-8 R/B                
1 11574U 79089B   25337.12548571  .00000424  00000+0  13619-3 0  9996
2 11574  74.0690 269.7726 0014479 108.2932 251.9801 14.42272353422181
SL-14 R/B               
1 11672U 80005B   25337.14580891  .00000866  00000+0  85299-4 0  9992
2 11672  82.5156  38.7975 0017082 122.7817 237.5050 14.90772887462109
SL-8 R/B                
1 12139U 81003B   25337.10840117  .00024577  00000+0  65656-3 0  9995
2 12139  82.9298  19.0674 0280999 153.4596 208.1345 15.06587019300113
SL-3 R/B                
1 12465U 81046B   25337.13961632  .00014448  00000+0  36720-3 0  9999
2 12465  81.2345  45.4192 0019603 358.1090   2.0073 15.39298594423560
SL-3 R/B                
1 12904U 81103B   25337.11558058  .00009161  00000+0  42291-3 0  9999
2 12904  81.1583 326.6250 0011241 250.3496 109.6522 15.20046990958559
SL-3 R/B                
1 13068U 82013B   25337.17022005  .00006934  00000+0  30975-3 0  9997
2 13068  81.1748 273.8086 0023647 141.4938 218.7986 15.20943748389672
SL-3 R/B                
1 13154U 82039B   25337.09377175  .00004205  00000+0  25878-3 0  9998
2 13154  81.1729 327.1931 0030368 284.9654  74.8209 15.09430400367066
